[{"OBJECT_NAME":"ALICE","OBJECT_ID":"2013-072F","EPOCH":"2026-03-09T16:03:25.924320","MEAN_MOTION":15.07155655,"ECCENTRICITY":0.01592016,"INCLINATION":120.4625,"RA_OF_ASC_NODE":282.3278,"ARG_OF_PERICENTER":246.5562,"MEAN_ANOMALY":111.8695,"EPHEMERIS_TYPE":0,"CLASSIFICATION_TYPE":"U","NORAD_CAT_ID":39467,"ELEMENT_SET_NO":999,"REV_AT_EPOCH":10026,"BSTAR":0.00062398338,"MEAN_MOTION_DOT":0.00012311,"MEAN_MOTION_DDOT":0},{"OBJECT_NAME":"TIANYI F","OBJECT_ID":"2025-103F","EPOCH":"2026-03-09T23:54:55.522944","MEAN_MOTION":15.18246358,"ECCENTRICITY":0.00043161,"INCLINATION":97.388,"RA_OF_ASC_NODE":142.7834,"ARG_OF_PERICENTER":136.4512,"MEAN_ANOMALY":223.7064,"EPHEMERIS_TYPE":0,"CLASSIFICATION_TYPE":"U","NORAD_CAT_ID":64053,"ELEMENT_SET_NO":999,"REV_AT_EPOCH":4499,"BSTAR":0.00028443218,"MEAN_MOTION_DOT":5.759e-5,"MEAN_MOTION_DDOT":0}]
